GLOBALSTAR M023         
1 25621U 99004A   25333.20377416 -.00000097  00000+0  36755-4 0  9990
2 25621  52.0112 270.9587 0010249 128.4330  11.1672 12.62509797236573
GLOBALSTAR M040         
1 25622U 99004B   25333.13603956 -.00000090  00000+0  75558-4 0  9991
2 25622  51.9927 275.5627 0001461  40.6979 332.6621 12.62023648236089
GLOBALSTAR M036         
1 25623U 99004C   25332.32773997 -.00000059  00000+0  34935-3 0  9993
2 25623  51.9931 167.6757 0010867  10.5366 160.3747 11.86617938198466
GLOBALSTAR M038         
1 25624U 99004D   25333.12952067 -.00000065  00000+0  24485-3 0  9996
2 25624  51.9989 316.5527 0002130  38.2708  41.6055 12.32536509222716
GLOBALSTAR M022         
1 25649U 99012A   25333.00609816 -.00000082  00000+0  58426-4 0  9992
2 25649  52.0016 202.8466 0003295 120.3923  18.3460 12.02507335196207
GLOBALSTAR M041         
1 25650U 99012B   25333.01614934 -.00000065  00000+0  26421-3 0  9992
2 25650  52.0016  89.2921 0000416 271.2523  88.8266 11.96681176198011
GLOBALSTAR M046         
1 25651U 99012C   25332.65016667  .00000049  00000+0  15129-2 0  9994
2 25651  52.0025 147.9434 0001570 185.7144 252.7042 12.09417654203567
GLOBALSTAR M037         
1 25652U 99012D   25333.16347215 -.00000042  00000+0  34378-3 0  9990
2 25652  52.0026  41.6379 0002253 180.4280 199.9538 12.62457059232116
